start=new Date('2023-02-22T00:00:00.000Z').valueOf();
sats=[{"TLE_LINE1":"1 48576U 21041Z   23052.74553989  .00011557  00000-0  79346-3 0  9991","GP_ID":"226330532","MEAN_MOTION_DOT":"0.00011557","TIME_SYSTEM":"UTC","PERIAPSIS":"546.497","APOAPSIS":"547.917","REF_FRAME":"TEME","DECAY_DATE":null,"PERIOD":"95.592","RCS_SIZE":"LARGE","TLE_LINE2":"2 48576  53.0520  58.3367 0001025 109.3361 250.7739 15.06402103 97966","MEAN_MOTION":"15.06402103","ARG_OF_PERICENTER":"109.3361","MEAN_ANOMALY":"250.7739","FILE":"3821329","BSTAR":"0.00079346000000","OBJECT_NAME":"STARLINK-2228","SEMIMAJOR_AXIS":"6925.342","CLASSIFICATION_TYPE":"U","OBJECT_ID":"2021-041Z","ECCENTRICITY":"0.00010250","COUNTRY_CODE":"US","MEAN_ELEMENT_THEORY":"SGP4","EPHEMERIS_TYPE":"0","RA_OF_ASC_NODE":"58.3367","EPOCH":"2023-02-21T17:53:34.646496","INCLINATION":"53.0520","OBJECT_TYPE":"PAYLOAD","NORAD_CAT_ID":"48576","REV_AT_EPOCH":"9796","MEAN_MOTION_DDOT":"0.0000000000000","LAUNCH_DATE":"2021-05-15","ELEMENT_SET_NO":"999","CENTER_NAME":"EARTH","SITE":"AFETR"},{"ECCENTRICITY":"0.00018080","OBJECT_ID":"2021-041AA","CLASSIFICATION_TYPE":"U","SEMIMAJOR_AXIS":"6925.399","BSTAR":"0.00091016000000","OBJECT_NAME":"STARLINK-2231","FILE":"3821329","MEAN_ANOMALY":"275.1084","ARG_OF_PERICENTER":"85.0111","MEAN_MOTION":"15.06383546","TLE_LINE2":"2 48577  53.0549  83.0034 0001808  85.0111 275.1084 15.06383546 97611","RCS_SIZE":"LARGE","PERIOD":"95.593","DECAY_DATE":null,"APOAPSIS":"548.516","PERIAPSIS":"546.012","REF_FRAME":"TEME","TIME_SYSTEM":"UTC","MEAN_MOTION_DOT":"0.00013295","GP_ID":"226331284","TLE_LINE1":"1 48577U 21041AA  23052.81879451  .00013295  00000-0  91016-3 0  9994","SITE":"AFETR","CENTER_NAME":"EARTH","ELEMENT_SET_NO":"999","LAUNCH_DATE":"2021-05-15","MEAN_MOTION_DDOT":"0.0000000000000","REV_AT_EPOCH":"9761","NORAD_CAT_ID":"48577","OBJECT_TYPE":"PAYLOAD","INCLINATION":"53.0549","EPOCH":"2023-02-21T19:39:03.845664","RA_OF_ASC_NODE":"83.0034","EPHEMERIS_TYPE":"0","MEAN_ELEMENT_THEORY":"SGP4","COUNTRY_CODE":"US"},{"TLE_LINE2":"2 48578  53.0520  83.6842 0001263  99.2883 260.8249 15.06382514 97609","ARG_OF_PERICENTER":"99.2883","MEAN_MOTION":"15.06382514","PERIOD":"95.593","RCS_SIZE":"LARGE","TIME_SYSTEM":"UTC","DECAY_DATE":null,"APOAPSIS":"548.142","PERIAPSIS":"546.392","REF_FRAME":"TEME","TLE_LINE1":"1 48578U 21041AB  23052.78199815 -.00007993  00000-0 -51854-3 0  9996","MEAN_MOTION_DOT":"-0.00007993","GP_ID":"226331035","OBJECT_ID":"2021-041AB","ECCENTRICITY":"0.00012630","CLASSIFICATION_TYPE":"U","MEAN_ANOMALY":"260.8249","FILE":"3821329","SEMIMAJOR_AXIS":"6925.402","BSTAR":"-0.00051854000000","OBJECT_NAME":"STARLINK-2232","INCLINATION":"53.0520","RA_OF_ASC_NODE":"83.6842","EPOCH":"2023-02-21T18:46:04.640160","MEAN_ELEMENT_THEORY":"SGP4","EPHEMERIS_TYPE":"0","COUNTRY_CODE":"US","CENTER_NAME":"EARTH","SITE":"AFETR","ELEMENT_SET_NO":"999","LAUNCH_DATE":"2021-05-15","REV_AT_EPOCH":"9760","MEAN_MOTION_DDOT":"0.0000000000000","OBJECT_TYPE":"PAYLOAD","NORAD_CAT_ID":"48578"},{"ECCENTRICITY":"0.00017490","OBJECT_ID":"2021-041AC","OBJECT_NAME":"STARLINK-2233","BSTAR":"0.00016145000000","SEMIMAJOR_AXIS":"6925.293","FILE":"3821329","MEAN_ANOMALY":"286.0338","CLASSIFICATION_TYPE":"U","RCS_SIZE":"LARGE","PERIOD":"95.591","MEAN_MOTION":"15.06418118","ARG_OF_PERICENTER":"74.0844","TLE_LINE2":"2 48579  53.0519  83.0570 0001749  74.0844 286.0338 15.06418118 97617","GP_ID":"226329783","MEAN_MOTION_DOT":"0.00002125","TLE_LINE1":"1 48579U 21041AC  23052.80771674  .00002125  00000-0  16145-3 0  9993","APOAPSIS":"548.369","PERIAPSIS":"545.947","REF_FRAME":"TEME","DECAY_DATE":null,"TIME_SYSTEM":"UTC","LAUNCH_DATE":"2021-05-15","ELEMENT_SET_NO":"999","SITE":"AFETR","CENTER_NAME":"EARTH","NORAD_CAT_ID":"48579","OBJECT_TYPE":"PAYLOAD","MEAN_MOTION_DDOT":"0.0000000000000","REV_AT_EPOCH":"9761","EPOCH":"2023-02-21T19:23:06.726336","RA_OF_ASC_NODE":"83.0570","INCLINATION":"53.0519","COUNTRY_CODE":"US","EPHEMERIS_TYPE":"0","MEAN_ELEMENT_THEORY":"SGP4"},{"BSTAR":"-0.00002546400000","OBJECT_NAME":"STARLINK-2234","SEMIMAJOR_AXIS":"6925.343","FILE":"3821329","MEAN_ANOMALY":"280.9298","CLASSIFICATION_TYPE":"U","ECCENTRICITY":"0.00021610","OBJECT_ID":"2021-041AD","GP_ID":"226330033","MEAN_MOTION_DOT":"-0.00000661","TLE_LINE1":"1 48580U 21041AD  23052.70773428 -.00000661  00000-0 -25464-4 0  9993","PERIAPSIS":"545.711","REF_FRAME":"TEME","APOAPSIS":"548.705","DECAY_DATE":null,"TIME_SYSTEM":"UTC","RCS_SIZE":"LARGE","PERIOD":"95.592","MEAN_MOTION":"15.06401825","ARG_OF_PERICENTER":"79.1934","TLE_LINE2":"2 48580  53.0540  58.4954 0002161  79.1934 280.9298 15.06401825 97952","NORAD_CAT_ID":"48580","OBJECT_TYPE":"PAYLOAD","MEAN_MOTION_DDOT":"0.0000000000000","REV_AT_EPOCH":"9795","LAUNCH_DATE":"2021-05-15","ELEMENT_SET_NO":"999","SITE":"AFETR","CENTER_NAME":"EARTH","COUNTRY_CODE":"US","EPHEMERIS_TYPE":"0","MEAN_ELEMENT_THEORY":"SGP4","EPOCH":"2023-02-21T16:59:08.241792","RA_OF_ASC_NODE":"58.4954","INCLINATION":"53.0540"},{"NORAD_CAT_ID":"48581","OBJECT_TYPE":"PAYLOAD","MEAN_MOTION_DDOT":"0.0000000000000","REV_AT_EPOCH":"9806","LAUNCH_DATE":"2021-05-15","ELEMENT_SET_NO":"999","SITE":"AFETR","CENTER_NAME":"EARTH","COUNTRY_CODE":"US","EPHEMERIS_TYPE":"0","MEAN_ELEMENT_THEORY":"SGP4","EPOCH":"2023-02-21T11:16:48.889920","RA_OF_ASC_NODE":"49.5715","INCLINATION":"53.0566","BSTAR":"0.00145300000000","OBJECT_NAME":"STARLINK-2235","SEMIMAJOR_AXIS":"6925.150","FILE":"3819803","MEAN_ANOMALY":"267.4450","CLASSIFICATION_TYPE":"U","ECCENTRICITY":"0.00017200","OBJECT_ID":"2021-041AE","GP_ID":"226273859","MEAN_MOTION_DOT":"0.00021465","TLE_LINE1":"1 48581U 21041AE  23052.47001030  .00021465  00000-0  14530-2 0  9994","PERIAPSIS":"545.824","APOAPSIS":"548.206","REF_FRAME":"TEME","DECAY_DATE":null,"TIME_SYSTEM":"UTC","RCS_SIZE":"LARGE","PERIOD":"95.588","MEAN_MOTION":"15.06464774","ARG_OF_PERICENTER":"92.6735","TLE_LINE2":"2 48581  53.0566  49.5715 0001720  92.6735 267.4450 15.06464774 98061"},{"MEAN_ELEMENT_THEORY":"SGP4","EPHEMERIS_TYPE":"0","COUNTRY_CODE":"US","INCLINATION":"53.0558","RA_OF_ASC_NODE":"48.6220","EPOCH":"2023-02-21T17:12:27.942912","REV_AT_EPOCH":"9809","MEAN_MOTION_DDOT":"0.0000000000000","OBJECT_TYPE":"PAYLOAD","NORAD_CAT_ID":"48582","CENTER_NAME":"EARTH","SITE":"AFETR","LAUNCH_DATE":"2021-05-15","ELEMENT_SET_NO":"999","TIME_SYSTEM":"UTC","PERIAPSIS":"546.509","APOAPSIS":"547.943","REF_FRAME":"TEME","DECAY_DATE":null,"TLE_LINE1":"1 48582U 21041AF  23052.71699008  .00005506  00000-0  38825-3 0  9992","GP_ID":"226331535","MEAN_MOTION_DOT":"0.00005506","TLE_LINE2":"2 48582  53.0558  48.6220 0001036 103.0968 257.0136 15.06395941 98097","MEAN_MOTION":"15.06395941","ARG_OF_PERICENTER":"103.0968","PERIOD":"95.592","RCS_SIZE":"LARGE","CLASSIFICATION_TYPE":"U","MEAN_ANOMALY":"257.0136","FILE":"3821329","BSTAR":"0.00038825000000","OBJECT_NAME":"STARLINK-2236","SEMIMAJOR_AXIS":"6925.361","OBJECT_ID":"2021-041AF","ECCENTRICITY":"0.00010360"},{"ELEMENT_SET_NO":"999","LAUNCH_DATE":"2021-05-15","SITE":"AFETR","CENTER_NAME":"EARTH","NORAD_CAT_ID":"48583","OBJECT_TYPE":"PAYLOAD","MEAN_MOTION_DDOT":"0.0000000000000","REV_AT_EPOCH":"9744","EPOCH":"2023-02-21T14:08:38.537952","RA_OF_ASC_NODE":"94.0344","INCLINATION":"53.0533","COUNTRY_CODE":"US","EPHEMERIS_TYPE":"0","MEAN_ELEMENT_THEORY":"SGP4","ECCENTRICITY":"0.00018990","OBJECT_ID":"2021-041AG","SEMIMAJOR_AXIS":"6925.226","OBJECT_NAME":"STARLINK-2237","BSTAR":"0.00183210000000","FILE":"3821329","MEAN_ANOMALY":"273.2321","CLASSIFICATION_TYPE":"U","RCS_SIZE":"LARGE","PERIOD":"95.590","ARG_OF_PERICENTER":"86.8885","MEAN_MOTION":"15.06440086","TLE_LINE2":"2 48583  53.0533  94.0344 0001899  86.8885 273.2321 15.06440086 97441","MEAN_MOTION_DOT":"0.00027143","GP_ID":"226330283","TLE_LINE1":"1 48583U 21041AG  23052.58933493  .00027143  00000-0  18321-2 0  9996","DECAY_DATE":null,"PERIAPSIS":"545.776","REF_FRAME":"TEME","APOAPSIS":"548.406","TIME_SYSTEM":"UTC"},{"OBJECT_ID":"2021-041AH","ECCENTRICITY":"0.00012850","CLASSIFICATION_TYPE":"U","FILE":"3821329","MEAN_ANOMALY":"289.6434","SEMIMAJOR_AXIS":"6925.361","OBJECT_NAME":"STARLINK-2238","BSTAR":"0.00002170700000","TLE_LINE2":"2 48584  53.0539  92.9605 0001285  70.4693 289.6434 15.06395953 97471","ARG_OF_PERICENTER":"70.4693","MEAN_MOTION":"15.06395953","PERIOD":"95.592","RCS_SIZE":"LARGE","TIME_SYSTEM":"UTC","DECAY_DATE":null,"APOAPSIS":"548.116","PERIAPSIS":"546.336","REF_FRAME":"TEME","TLE_LINE1":"1 48584U 21041AH  23052.82893273  .00000042  00000-0  21707-4 0  9998","MEAN_MOTION_DOT":"0.00000042","GP_ID":"226330533","CENTER_NAME":"EARTH","SITE":"AFETR","ELEMENT_SET_NO":"999","LAUNCH_DATE":"2021-05-15","REV_AT_EPOCH":"9747","MEAN_MOTION_DDOT":"0.0000000000000","OBJECT_TYPE":"PAYLOAD","NORAD_CAT_ID":"48584","INCLINATION":"53.0539","RA_OF_ASC_NODE":"92.9605","EPOCH":"2023-02-21T19:53:39.787872","MEAN_ELEMENT_THEORY":"SGP4","EPHEMERIS_TYPE":"0","COUNTRY_CODE":"US"},{"NORAD_CAT_ID":"48585","OBJECT_TYPE":"PAYLOAD","MEAN_MOTION_DDOT":"0.0000000000000","REV_AT_EPOCH":"9747","ELEMENT_SET_NO":"999","LAUNCH_DATE":"2021-05-15","SITE":"AFETR","CENTER_NAME":"EARTH","COUNTRY_CODE":"US","EPHEMERIS_TYPE":"0","MEAN_ELEMENT_THEORY":"SGP4","EPOCH":"2023-02-21T20:09:35.107488","RA_OF_ASC_NODE":"92.9109","INCLINATION":"53.0519","SEMIMAJOR_AXIS":"6925.266","BSTAR":"0.00147570000000","OBJECT_NAME":"STARLINK-2240","FILE":"3821329","MEAN_ANOMALY":"274.5968","CLASSIFICATION_TYPE":"U","ECCENTRICITY":"0.00013520","OBJECT_ID":"2021-041AJ","MEAN_MOTION_DOT":"0.00021783","GP_ID":"226331285","TLE_LINE1":"1 48585U 21041AJ  23052.83998967  .00021783  00000-0  14757-2 0  9996","DECAY_DATE":null,"APOAPSIS":"548.068","PERIAPSIS":"546.195","REF_FRAME":"TEME","TIME_SYSTEM":"UTC","RCS_SIZE":"LARGE","PERIOD":"95.590","ARG_OF_PERICENTER":"85.5175","MEAN_MOTION":"15.06426811","TLE_LINE2":"2 48585  53.0519  92.9109 0001352  85.5175 274.5968 15.06426811 97479"}];
